{
  "norad_id": 60349,
  "name": "STARLINK-32181",
  "history": [
    {
      "epoch": "2026-03-28T22:07:10.609248Z",
      "apogee_km": 475.9907384448561,
      "perigee_km": 474.41515559103755,
      "latitude_deg": 4.8420684238733605e-05,
      "longitude_deg": -172.12592531663196,
      "height_km": 476.1292986570707,
      "semi_major_axis_km": 6853.3399470179465,
      "eccentricity": 0.00011495,
      "inclination_deg": 53.1622,
      "raan_deg": 346.0034,
      "arg_perigee_deg": 92.0282,
      "mean_anomaly_deg": 268.0851,
      "mean_motion_rev_day": 15.3020406
    },
    {
      "epoch": "2026-03-29T02:49:20.692704Z",
      "apogee_km": 475.9258678351034,
      "perigee_km": 474.51955842197094,
      "latitude_deg": 4.825717762466315e-05,
      "longitude_deg": 116.23262301871303,
      "height_km": 475.9960616408421,
      "semi_major_axis_km": 6853.359713128537,
      "eccentricity": 0.0001026,
      "inclination_deg": 53.1618,
      "raan_deg": 345.0971,
      "arg_perigee_deg": 79.738,
      "mean_anomaly_deg": 280.3737,
      "mean_motion_rev_day": 15.3019744
    },
    {
      "epoch": "2026-03-29T23:12:02.549088Z",
      "apogee_km": 476.03045804750764,
      "perigee_km": 474.5021491108091,
      "latitude_deg": 3.887875695075573e-05,
      "longitude_deg": 165.77780808936166,
      "height_km": 476.0708117412911,
      "semi_major_axis_km": 6853.403303579158,
      "eccentricity": 0.0001115,
      "inclination_deg": 53.1623,
      "raan_deg": 341.1536,
      "arg_perigee_deg": 82.9321,
      "mean_anomaly_deg": 277.1807,
      "mean_motion_rev_day": 15.30182841
    },
    {
      "epoch": "2026-03-29T23:12:02.549952Z",
      "apogee_km": 476.03045804750764,
      "perigee_km": 474.5021491108091,
      "latitude_deg": 3.887875654042971e-05,
      "longitude_deg": 165.77780447950306,
      "height_km": 476.0708117412931,
      "semi_major_axis_km": 6853.403303579158,
      "eccentricity": 0.0001115,
      "inclination_deg": 53.1623,
      "raan_deg": 341.1536,
      "arg_perigee_deg": 82.9321,
      "mean_anomaly_deg": 277.1807,
      "mean_motion_rev_day": 15.30182841
    },
    {
      "epoch": "2026-03-30T10:10:24.941856Z",
      "apogee_km": 475.96235537600023,
      "perigee_km": 474.5225974155992,
      "latitude_deg": -2.481687402935499e-05,
      "longitude_deg": -1.389682507363894,
      "height_km": 476.05930433393576,
      "semi_major_axis_km": 6853.379476395799,
      "eccentricity": 0.00010504,
      "inclination_deg": 53.1619,
      "raan_deg": 339.0301,
      "arg_perigee_deg": 83.4786,
      "mean_anomaly_deg": 276.6334,
      "mean_motion_rev_day": 15.30190821
    },
    {
      "epoch": "2026-03-30T21:08:47.177376Z",
      "apogee_km": 475.9462786413842,
      "perigee_km": 474.5487364726023,
      "latitude_deg": 1.9184837887101232e-05,
      "longitude_deg": -168.5566358553885,
      "height_km": 476.02460358411673,
      "semi_major_axis_km": 6853.3845075569925,
      "eccentricity": 0.00010196,
      "inclination_deg": 53.1615,
      "raan_deg": 336.9064,
      "arg_perigee_deg": 79.9871,
      "mean_anomaly_deg": 280.1245,
      "mean_motion_rev_day": 15.30189136
    },
    {
      "epoch": "2026-03-31T09:41:12.733440Z",
      "apogee_km": 475.97464276738174,
      "perigee_km": 474.51213139277934,
      "latitude_deg": -6.428448407428769e-06,
      "longitude_deg": 0.39414491478889874,
      "height_km": 476.01413984423306,
      "semi_major_axis_km": 6853.38038708008,
      "eccentricity": 0.0001067,
      "inclination_deg": 53.1604,
      "raan_deg": 334.4787,
      "arg_perigee_deg": 79.9458,
      "mean_anomaly_deg": 280.1663,
      "mean_motion_rev_day": 15.30190516
    },
    {
      "epoch": "2026-04-01T01:21:45.015264Z",
      "apogee_km": 476.11596805769295,
      "perigee_km": 474.4689518898722,
      "latitude_deg": -2.3028244007277522e-05,
      "longitude_deg": 121.58125044843071,
      "height_km": 476.15733781124806,
      "semi_major_axis_km": 6853.429459973782,
      "eccentricity": 0.00012016,
      "inclination_deg": 53.1604,
      "raan_deg": 331.4441,
      "arg_perigee_deg": 87.6805,
      "mean_anomaly_deg": 272.4333,
      "mean_motion_rev_day": 15.30174081
    },
    {
      "epoch": "2026-04-02T08:42:48.274272Z",
      "apogee_km": 476.0535696780862,
      "perigee_km": 474.38902601470545,
      "latitude_deg": 3.275492702173321e-05,
      "longitude_deg": 3.957678294544642,
      "height_km": 476.34869593338476,
      "semi_major_axis_km": 6853.3582978463955,
      "eccentricity": 0.00012144,
      "inclination_deg": 53.1619,
      "raan_deg": 325.3716,
      "arg_perigee_deg": 105.9702,
      "mean_anomaly_deg": 254.1433,
      "mean_motion_rev_day": 15.30197914
    },
    {
      "epoch": "2026-04-02T22:49:16.745664Z",
      "apogee_km": 475.96995601655817,
      "perigee_km": 474.4729084006267,
      "latitude_deg": 7.192318019079844e-05,
      "longitude_deg": 149.0305858627651,
      "height_km": 476.34602223909144,
      "semi_major_axis_km": 6853.358432208593,
      "eccentricity": 0.00010922,
      "inclination_deg": 53.1613,
      "raan_deg": 322.6425,
      "arg_perigee_deg": 107.5799,
      "mean_anomaly_deg": 252.5322,
      "mean_motion_rev_day": 15.30197869
    },
    {
      "epoch": "2026-04-03T20:46:02.837568Z",
      "apogee_km": 476.0500596817892,
      "perigee_km": 474.48063054475824,
      "latitude_deg": 1.2025831724853666e-05,
      "longitude_deg": 174.6919958024937,
      "height_km": 476.3042321709136,
      "semi_major_axis_km": 6853.402345113273,
      "eccentricity": 0.0001145,
      "inclination_deg": 53.1611,
      "raan_deg": 318.3973,
      "arg_perigee_deg": 100.3149,
      "mean_anomaly_deg": 259.7981,
      "mean_motion_rev_day": 15.30183162
    },
    {
      "epoch": "2026-04-04T20:16:49.837728Z",
      "apogee_km": 475.90076258810495,
      "perigee_km": 474.5547617488146,
      "latitude_deg": -2.209085189918557e-05,
      "longitude_deg": 176.48108869134813,
      "height_km": 476.2534773482034,
      "semi_major_axis_km": 6853.3647621684595,
      "eccentricity": 9.82e-05,
      "inclination_deg": 53.1614,
      "raan_deg": 313.8479,
      "arg_perigee_deg": 100.8841,
      "mean_anomaly_deg": 259.227,
      "mean_motion_rev_day": 15.30195749
    },
    {
      "epoch": "2026-04-05T07:15:12.513888Z",
      "apogee_km": 475.61748195409564,
      "perigee_km": 474.85949862486905,
      "latitude_deg": -2.096411493187207e-05,
      "longitude_deg": 9.313161156694642,
      "height_km": 476.2829495504101,
      "semi_major_axis_km": 6853.375490289482,
      "eccentricity": 5.53e-05,
      "inclination_deg": 53.1593,
      "raan_deg": 311.7251,
      "arg_perigee_deg": 112.5699,
      "mean_anomaly_deg": 247.536,
      "mean_motion_rev_day": 15.30192156
    },
    {
      "epoch": "2026-04-05T19:47:37.904064Z",
      "apogee_km": 475.78686624116835,
      "perigee_km": 474.69443784343275,
      "latitude_deg": 2.07987470836445e-05,
      "longitude_deg": 178.26428357687672,
      "height_km": 476.18496925619297,
      "semi_major_axis_km": 6853.377652042301,
      "eccentricity": 7.97e-05,
      "inclination_deg": 53.1602,
      "raan_deg": 309.297,
      "arg_perigee_deg": 94.7879,
      "mean_anomaly_deg": 265.3213,
      "mean_motion_rev_day": 15.30191432
    },
    {
      "epoch": "2026-04-06T06:46:00.179328Z",
      "apogee_km": 475.7300293186645,
      "perigee_km": 474.7301230622488,
      "latitude_deg": 6.45507652769969e-05,
      "longitude_deg": 11.093962450757767,
      "height_km": 476.15479829264933,
      "semi_major_axis_km": 6853.367076190456,
      "eccentricity": 7.295e-05,
      "inclination_deg": 53.1594,
      "raan_deg": 307.1701,
      "arg_perigee_deg": 92.9811,
      "mean_anomaly_deg": 267.1274,
      "mean_motion_rev_day": 15.30194974
    },
    {
      "epoch": "2026-04-06T20:52:29.354880Z",
      "apogee_km": 475.97517566725764,
      "perigee_km": 474.5277400249606,
      "latitude_deg": -2.4665496182309305e-05,
      "longitude_deg": 156.16213046496054,
      "height_km": 475.88575202948533,
      "semi_major_axis_km": 6853.388457846109,
      "eccentricity": 0.0001056,
      "inclination_deg": 53.1601,
      "raan_deg": 304.4393,
      "arg_perigee_deg": 68.5902,
      "mean_anomaly_deg": 291.5211,
      "mean_motion_rev_day": 15.30187813
    },
    {
      "epoch": "2026-04-07T20:23:17.092896Z",
      "apogee_km": 475.8581421040708,
      "perigee_km": 474.58204701306386,
      "latitude_deg": 3.443764924202506e-05,
      "longitude_deg": 157.94760798711846,
      "height_km": 475.9297677067015,
      "semi_major_axis_km": 6853.357094558567,
      "eccentricity": 9.31e-05,
      "inclination_deg": 53.16,
      "raan_deg": 299.8893,
      "arg_perigee_deg": 72.7778,
      "mean_anomaly_deg": 287.3325,
      "mean_motion_rev_day": 15.30198317
    },
    {
      "epoch": "2026-04-07T20:23:17.093760Z",
      "apogee_km": 475.8580735705,
      "perigee_km": 474.58211554663467,
      "latitude_deg": 3.531863217498342e-05,
      "longitude_deg": 157.94760503363162,
      "height_km": 475.9297879977138,
      "semi_major_axis_km": 6853.357094558567,
      "eccentricity": 9.309e-05,
      "inclination_deg": 53.16,
      "raan_deg": 299.8893,
      "arg_perigee_deg": 72.7778,
      "mean_anomaly_deg": 287.3325,
      "mean_motion_rev_day": 15.30198317
    },
    {
      "epoch": "2026-04-09T19:24:52.715808Z",
      "apogee_km": 475.90908532556205,
      "perigee_km": 474.53567210606616,
      "latitude_deg": -1.8754207932837124e-05,
      "longitude_deg": 161.51782140324042,
      "height_km": 475.9581132646996,
      "semi_major_axis_km": 6853.359378715813,
      "eccentricity": 0.0001002,
      "inclination_deg": 53.1607,
      "raan_deg": 290.7893,
      "arg_perigee_deg": 76.2843,
      "mean_anomaly_deg": 283.8269,
      "mean_motion_rev_day": 15.30197552
    }
  ]
}